{"fetched_at":"2026-07-23T17:55:17.051Z","source":"https://celestrak.org/NORAD/elements/gp.php?GROUP=stations&FORMAT=JSON","constellation":"tiangong","records":[{"OBJECT_NAME":"CSS (TIANHE)","OBJECT_ID":"2021-035A","EPOCH":"2026-07-23T00:49:30.417312","CLASSIFICATION_TYPE":"U","MEAN_MOTION":15.58280026,"ECCENTRICITY":0.00017398,"INCLINATION":41.469,"RA_OF_ASC_NODE":104.3124,"ARG_OF_PERICENTER":306.7625,"MEAN_ANOMALY":53.3054,"EPHEMERIS_TYPE":0,"NORAD_CAT_ID":48274,"ELEMENT_SET_NO":999,"REV_AT_EPOCH":29876,"BSTAR":0.00014911554,"MEAN_MOTION_DOT":0.00011304,"MEAN_MOTION_DDOT":0}]}
